ORBCOMM FM37 [-]        
1 33064U 08031E   23319.96445927  .00001791  00000+0  29070-3 0  9990
2 33064  48.4400 207.3087 0005593  57.5184 316.1717 14.75420712828408
ORBCOMM FM40 [-]        
1 33065U 08031F   23319.78614344  .00002071  00000+0  32342-3 0  9990
2 33065  48.4423 199.0815 0006906  65.7570  49.0711 14.76518323828390
VESSELSAT 1 [-]         
1 37840U 11058C   23319.50676758  .00000411  00000+0  79966-4 0  9995
2 37840  19.9636   0.7337 0013544 291.9908  67.9057 14.11083496624556
ORBCOMM FM109 [+]       
1 40086U 14040A   23319.84493213  .00000881  00000+0  23550-3 0  9993
2 40086  47.0038 227.7658 0001665 187.5077 172.5783 14.56091172496572
ORBCOMM FM107 [+]       
1 40087U 14040B   23319.87908081  .00001037  00000+0  27043-3 0  9996
2 40087  47.0056 228.5422 0000903 139.0210 221.0743 14.56099339496654
ORBCOMM FM106 [-]       
1 40088U 14040C   23319.74760911  .00001539  00000+0  30896-3 0  9998
2 40088  47.0603  95.1822 0018997 259.9494  99.9252 14.66236088498354
ORBCOMM FM111 [-]       
1 40089U 14040D   23319.88456837  .00002547  00000+0  35380-3 0  9996
2 40089  47.0064  15.9871 0034216 309.4858  50.3012 14.80384253504231
ORBCOMM FM104 [-]       
1 40090U 14040E   23319.26107211  .00000846  00000+0  23476-3 0  9992
2 40090  47.0059 258.4246 0016616  76.6794 283.5942 14.54631032496135
